{"type": "FeatureCollection", "features": [ {"type": "Feature", "properties": {"norad_id": 31362, "name": "FENGYUN 1C DEB", "group": "fengyun-1c-debris", "lat": 48.10803525626069, "lon": -174.3020909807618, "alt_km": 826.7920153682498, "timestamp": "2025-12-27T23:26:37.644653+00:00", "meta": {"OBJECT_NAME": "FENGYUN 1C DEB", "OBJECT_ID": "1999-025BRS", "EPOCH": "2025-12-25T20:00:11.166048", "MEAN_MOTION": 14.1738766, "ECCENTRICITY": 0.00191533, "INCLINATION": 98.6532, "RA_OF_ASC_NODE": 353.8369, "ARG_OF_PERICENTER": 59.9167, "MEAN_ANOMALY": 300.3904, "EPHEMERIS_TYPE": 0, "CLASSIFICATION_TYPE": "U", "NORAD_CAT_ID": 31362, "ELEMENT_SET_NO": 999, "REV_AT_EPOCH": 96761, "BSTAR": 0.00016907424, "MEAN_MOTION_DOT": 3e-06, "MEAN_MOTION_DDOT": 0}, "tle": {"line1": "1 31362U 99025BRS 25359.83346257  .00000300  00000+0  16907-3 0  9990", "line2": "2 31362  98.6532 353.8369 0019153  59.9167 300.3904 14.17387660967614"}}, "geometry": {"type": "Point", "coordinates": [-174.3020909807618, 48.10803525626069]}}, {"type": "Feature", "properties": {"norad_id": 31364, "name": "FENGYUN 1C DEB", "group": "fengyun-1c-debris", "lat": 5.409140342348465, "lon": 121.30686536729675, "alt_km": 856.9949504518254, "timestamp": "2025-12-27T23:26:37.644663+00:00", "meta": {"OBJECT_NAME": "FENGYUN 1C DEB", "OBJECT_ID": "1999-025BRU", "EPOCH": "2025-12-27T01:21:11.644992", "MEAN_MOTION": 14.14807312, "ECCENTRICITY": 0.00920412, "INCLINATION": 99.2619, "RA_OF_ASC_NODE": 121.2375, "ARG_OF_PERICENTER": 109.0199, "MEAN_ANOMALY": 252.0972, "EPHEMERIS_TYPE": 0, "CLASSIFICATION_TYPE": "U", "NORAD_CAT_ID": 31364, "ELEMENT_SET_NO": 999, "REV_AT_EPOCH": 95079, "BSTAR": 0.0031924733, "MEAN_MOTION_DOT": 6.372e-05, "MEAN_MOTION_DDOT": 0}, "tle": {"line1": "1 31364U 99025BRU 25361.05638478  .00006372  00000+0  31925-2 0  9999", "line2": "2 31364  99.2619 121.2375 0092041 109.0199 252.0972 14.14807312950799"}}, "geometry": {"type": "Point", "coordinates": [121.30686536729675, 5.409140342348465]}}, {"type": "Feature", "properties": {"norad_id": 31365, "name": "FENGYUN 1C DEB", "group": "fengyun-1c-debris", "lat": 2.789589057340556, "lon": 86.84249240405599, "alt_km": 784.5808345135702, "timestamp": "2025-12-27T23:26:37.644673+00:00", "meta": {"OBJECT_NAME": "FENGYUN 1C DEB", "OBJECT_ID": "1999-025BRV", "EPOCH": "2025-12-27T05:06:45.282240", "MEAN_MOTION": 14.42033044, "ECCENTRICITY": 0.0042761, "INCLINATION": 98.6725, "RA_OF_ASC_NODE": 86.4928, "ARG_OF_PERICENTER": 178.1118, "MEAN_ANOMALY": 182.024, "EPHEMERIS_TYPE": 0, "CLASSIFICATION_TYPE": "U", "NORAD_CAT_ID": 31365, "ELEMENT_SET_NO": 999, "REV_AT_EPOCH": 96837, "BSTAR": 0.002287, "MEAN_MOTION_DOT": 7.552e-05, "MEAN_MOTION_DDOT": 0}, "tle": {"line1": "1 31365U 99025BRV 25361.21302410  .00007552  00000+0  22870-2 0  9992", "line2": "2 31365  98.6725  86.4928 0042761 178.1118 182.0240 14.42033044968376"}}, "geometry": {"type": "Point", "coordinates": [86.84249240405599, 2.789589057340556]}}, {"type": "Feature", "properties": {"norad_id": 31367, "name": "FENGYUN 1C DEB", "group": "fengyun-1c-debris", "lat": -29.685730895535986, "lon": 71.7224129930589, "alt_km": 774.841414014878, "timestamp": "2025-12-27T23:26:37.644683+00:00", "meta": {"OBJECT_NAME": "FENGYUN 1C DEB", "OBJECT_ID": "1999-025BRX", "EPOCH": "2025-12-26T16:43:42.849408", "MEAN_MOTION": 14.47555075, "ECCENTRICITY": 0.00986072, "INCLINATION": 98.7455, "RA_OF_ASC_NODE": 255.434, "ARG_OF_PERICENTER": 334.5383, "MEAN_ANOMALY": 50.9395, "EPHEMERIS_TYPE": 0, "CLASSIFICATION_TYPE": "U", "NORAD_CAT_ID": 31367, "ELEMENT_SET_NO": 999, "REV_AT_EPOCH": 98668, "BSTAR": 0.00070622435, "MEAN_MOTION_DOT": 2.71e-05, "MEAN_MOTION_DDOT": 0}, "tle": {"line1": "1 31367U 99025BRX 25360.69702372  .00002710  00000+0  70622-3 0  9996", "line2": "2 31367  98.7455 255.4340 0098607 334.5383  50.9395 14.47555075986683"}}, "geometry": {"type": "Point", "coordinates": [71.7224129930589, -29.685730895535986]}}, {"type": "Feature", "properties": {"norad_id": 31369, "name": "FENGYUN 1C DEB", "group": "fengyun-1c-debris", "lat": 19.085611507778893, "lon": 165.85113499031868, "alt_km": 830.0143531242202, "timestamp": "2025-12-27T23:26:37.644704+00:00", "meta": {"OBJECT_NAME": "FENGYUN 1C DEB", "OBJECT_ID": "1999-025BRZ", "EPOCH": "2025-12-26T18:30:18.254304", "MEAN_MOTION": 14.19427454, "ECCENTRICITY": 0.00542459, "INCLINATION": 98.6201, "RA_OF_ASC_NODE": 341.6692, "ARG_OF_PERICENTER": 258.1592, "MEAN_ANOMALY": 225.0553, "EPHEMERIS_TYPE": 0, "CLASSIFICATION_TYPE": "U", "NORAD_CAT_ID": 31369, "ELEMENT_SET_NO": 999, "REV_AT_EPOCH": 64526, "BSTAR": 0.0002788204, "MEAN_MOTION_DOT": 5.52e-06, "MEAN_MOTION_DDOT": 0}, "tle": {"line1": "1 31369U 99025BRZ 25360.77104461  .00000552  00000+0  27882-3 0  9994", "line2": "2 31369  98.6201 341.6692 0054245 258.1592 225.0553 14.19427454645269"}}, "geometry": {"type": "Point", "coordinates": [165.85113499031868, 19.085611507778893]}}, {"type": "Feature", "properties": {"norad_id": 31370, "name": "FENGYUN 1C DEB", "group": "fengyun-1c-debris", "lat": 55.123797624980895, "lon": -165.65953380443187, "alt_km": 870.4194682733905, "timestamp": "2025-12-27T23:26:37.644715+00:00", "meta": {"OBJECT_NAME": "FENGYUN 1C DEB", "OBJECT_ID": "1999-025BSA", "EPOCH": "2025-12-25T11:14:09.232224", "MEAN_MOTION": 14.09723002, "ECCENTRICITY": 0.0033165, "INCLINATION": 98.7541, "RA_OF_ASC_NODE": 359.129, "ARG_OF_PERICENTER": 260.9395, "MEAN_ANOMALY": 98.8022, "EPHEMERIS_TYPE": 0, "CLASSIFICATION_TYPE": "U", "NORAD_CAT_ID": 31370, "ELEMENT_SET_NO": 999, "REV_AT_EPOCH": 96473, "BSTAR": 0.00029824, "MEAN_MOTION_DOT": 4.83e-06, "MEAN_MOTION_DDOT": 0}, "tle": {"line1": "1 31370U 99025BSA 25359.46816241  .00000483  00000+0  29824-3 0  9997", "line2": "2 31370  98.7541 359.1290 0033165 260.9395  98.8022 14.09723002964737"}}, "geometry": {"type": "Point", "coordinates": [-165.65953380443187, 55.123797624980895]}}, {"type": "Feature", "properties": {"norad_id": 31371, "name": "FENGYUN 1C DEB", "group": "fengyun-1c-debris", "lat": 75.76213782386196, "lon": -108.11154652017112, "alt_km": 883.0797093756455, "timestamp": "2025-12-27T23:26:37.644726+00:00", "meta": {"OBJECT_NAME": "FENGYUN 1C DEB", "OBJECT_ID": "1999-025BSB", "EPOCH": "2025-12-26T12:45:48.917952", "MEAN_MOTION": 14.04541373, "ECCENTRICITY": 0.0078596, "INCLINATION": 98.7649, "RA_OF_ASC_NODE": 33.0477, "ARG_OF_PERICENTER": 208.0679, "MEAN_ANOMALY": 151.624, "EPHEMERIS_TYPE": 0, "CLASSIFICATION_TYPE": "U", "NORAD_CAT_ID": 31371, "ELEMENT_SET_NO": 999, "REV_AT_EPOCH": 95940, "BSTAR": 0.00094215, "MEAN_MOTION_DOT": 1.504e-05, "MEAN_MOTION_DDOT": 0}, "tle": {"line1": "1 31371U 99025BSB 25360.53181618  .00001504  00000+0  94215-3 0  9992", "line2": "2 31371  98.7649  33.0477 0078596 208.0679 151.6240 14.04541373959409"}}, "geometry": {"type": "Point", "coordinates": [-108.11154652017112, 75.76213782386196]}}, {"type": "Feature", "properties": {"norad_id": 31372, "name": "FENGYUN 1C DEB", "group": "fengyun-1c-debris", "lat": -27.442771685384336, "lon": -0.9904995834197935, "alt_km": 796.3643429853955, "timestamp": "2025-12-27T23:26:37.644736+00:00", "meta": {"OBJECT_NAME": "FENGYUN 1C DEB", "OBJECT_ID": "1999-025BSC", "EPOCH": "2025-12-27T10:06:28.391616", "MEAN_MOTION": 14.26647793, "ECCENTRICITY": 0.0033891, "INCLINATION": 99.375, "RA_OF_ASC_NODE": 353.4933, "ARG_OF_PERICENTER": 33.7281, "MEAN_ANOMALY": 326.6044, "EPHEMERIS_TYPE": 0, "CLASSIFICATION_TYPE": "U", "NORAD_CAT_ID": 31372, "ELEMENT_SET_NO": 999, "REV_AT_EPOCH": 96060, "BSTAR": 0.0018793, "MEAN_MOTION_DOT": 4.522e-05, "MEAN_MOTION_DDOT": 0}, "tle": {"line1": "1 31372U 99025BSC 25361.42116194  .00004522  00000+0  18793-2 0  9998", "line2": "2 31372  99.3750 353.4933 0033891  33.7281 326.6044 14.26647793960604"}}, "geometry": {"type": "Point", "coordinates": [-0.9904995834197935, -27.442771685384336]}}, {"type": "Feature", "properties": {"norad_id": 31376, "name": "FENGYUN 1C DEB", "group": "fengyun-1c-debris", "lat": 6.003095616669981, "lon": -81.70832582696139, "alt_km": 716.8986532194249, "timestamp": "2025-12-27T23:26:37.644747+00:00", "meta": {"OBJECT_NAME": "FENGYUN 1C DEB", "OBJECT_ID": "1999-025BSG", "EPOCH": "2025-12-27T00:25:13.130112", "MEAN_MOTION": 14.6199919, "ECCENTRICITY": 0.0048335, "INCLINATION": 98.8332, "RA_OF_ASC_NODE": 278.204, "ARG_OF_PERICENTER": 223.6004, "MEAN_ANOMALY": 136.1371, "EPHEMERIS_TYPE": 0, "CLASSIFICATION_TYPE": "U", "NORAD_CAT_ID": 31376, "ELEMENT_SET_NO": 999, "REV_AT_EPOCH": 98351, "BSTAR": 0.0025365223, "MEAN_MOTION_DOT": 0.00012897, "MEAN_MOTION_DDOT": 0}, "tle": {"line1": "1 31376U 99025BSG 25361.01751308  .00012897  00000+0  25365-2 0  9996", "line2": "2 31376  98.8332 278.2040 0048335 223.6004 136.1371 14.61999190983515"}}, "geometry": {"type": "Point", "coordinates": [-81.70832582696139, 6.003095616669981]}}, {"type": "Feature", "properties": {"norad_id": 31378, "name": "FENGYUN 1C DEB", "group": "fengyun-1c-debris", "lat": -12.855001401948474, "lon": 70.48694385571112, "alt_km": 864.0500041745236, "timestamp": "2025-12-27T23:26:37.644757+00:00", "meta": {"OBJECT_NAME": "FENGYUN 1C DEB", "OBJECT_ID": "1999-025BSJ", "EPOCH": "2025-12-24T12:44:38.104512", "MEAN_MOTION": 13.80093573, "ECCENTRICITY": 0.01685737, "INCLINATION": 100.7561, "RA_OF_ASC_NODE": 249.0603, "ARG_OF_PERICENTER": 168.0934, "MEAN_ANOMALY": 192.4275, "EPHEMERIS_TYPE": 0, "CLASSIFICATION_TYPE": "U", "NORAD_CAT_ID": 31378, "ELEMENT_SET_NO": 999, "REV_AT_EPOCH": 94386, "BSTAR": 0.00064589916, "MEAN_MOTION_DOT": 6.93e-06, "MEAN_MOTION_DDOT": 0}, "tle": {"line1": "1 31378U 99025BSJ 25358.53099658  .00000693  00000+0  64590-3 0  9999", "line2": "2 31378 100.7561 249.0603 0168573 168.0934 192.4275 13.80093573943868"}}, "geometry": {"type": "Point", "coordinates": [70.48694385571112, -12.855001401948474]}}]}